OBJECT_NAME,OBJECT_ID,EPOCH,MEAN_MOTION,ECCENTRICITY,INCLINATION,RA_OF_ASC_NODE,ARG_OF_PERICENTER,MEAN_ANOMALY,EPHEMERIS_TYPE,CLASSIFICATION_TYPE,NORAD_CAT_ID,ELEMENT_SET_NO,REV_AT_EPOCH,BSTAR,MEAN_MOTION_DOT,MEAN_MOTION_DDOT
STARLINK-33627,2025-035S,2026-07-07T01:17:11.300064,15.27570594,.0001464,43.0004,193.0788,268.8767,91.1917,0,U,63068,999,7797,.83428E-3,.2276E-3,0
STARLINK-33620,2025-035T,2026-07-06T17:20:50.881632,15.27553763,.0002132,43.0024,194.8972,267.9732,92.0876,0,U,63069,999,7792,.40537E-3,.109E-3,0
STARLINK-33604,2025-035U,2026-07-06T11:41:13.263648,15.27553458,.0002407,43.0001,196.5795,251.1582,108.9009,0,U,63070,999,7788,.3937E-3,.10579E-3,0
STARLINK-33624,2025-035V,2026-07-07T01:04:12.079200,15.29550928,.0000788,42.9995,189.5479,20.7233,339.3651,0,U,63071,999,7791,.10074E-2,.29299E-3,0
STARLINK-33623,2025-035W,2026-07-07T01:39:23.556960,15.27564786,.0001564,43.0015,193.2018,274.9678,85.0995,0,U,63072,999,7798,.40193E-3,.10809E-3,0
STARLINK-33586,2025-035X,2026-07-07T00:48:58.419072,15.27569198,.0001674,43.0008,185.9997,268.2576,91.8084,0,U,63073,999,7806,.57161E-3,.15495E-3,0
STARLINK-33605,2025-035Y,2026-07-07T00:45:44.012160,15.27559163,.0001633,42.9997,192.9116,262.2874,97.7792,0,U,63074,999,7797,.3912E-3,.10511E-3,0
ZHONGXING-10R,2025-036A,2026-07-07T03:57:38.522880,1.00268150,.0004174,0.0479,229.1084,282.3480,303.5957,0,U,63075,999,516,0,-.337E-5,0
STARLINK-32839,2025-037A,2026-07-06T22:45:19.924128,14.98319750,.0002444,70.0018,53.8533,268.4990,91.5889,0,U,63077,999,7645,.10425E-4,.31E-6,0
STARLINK-32821,2025-037B,2026-07-07T01:57:21.956832,14.98319786,.000279,70.0007,53.5104,271.5598,88.5241,0,U,63078,999,7646,.18114E-3,.2068E-4,0
STARLINK-32817,2025-037C,2026-07-07T01:15:17.298720,14.98320742,.0002792,70.0007,53.4059,273.1101,86.9738,0,U,63079,999,7647,.51086E-4,.516E-5,0
STARLINK-32906,2025-037D,2026-07-06T23:09:22.035168,14.98338901,.0001931,70.0007,53.9020,258.7263,101.3679,0,U,63080,999,7646,.17724E-3,.2023E-4,0
STARLINK-32895,2025-037E,2026-07-06T23:03:06.724800,14.98327947,.000289,70.0010,53.8933,274.3864,85.6965,0,U,63081,999,7632,.28766E-3,.3341E-4,0
STARLINK-32933,2025-037F,2026-07-07T01:39:34.128000,14.98320252,.0003253,70.0009,53.4614,279.0820,80.9971,0,U,63082,999,7642,.18029E-3,.2058E-4,0
STARLINK-32932,2025-037G,2026-07-06T22:33:04.267008,14.98319984,.0002751,70.0008,53.8206,269.5972,90.4871,0,U,63083,999,7632,.26208E-3,.3035E-4,0
STARLINK-32908,2025-037H,2026-07-07T01:33:18.143712,14.98344958,.0002728,70.0011,53.4505,268.9705,91.1142,0,U,63084,999,7634,.12468E-3,.1396E-4,0
STARLINK-32505,2025-037J,2026-07-06T23:03:21.026592,14.98326077,.0002477,70.0010,53.8901,269.8355,90.2521,0,U,63085,999,7641,.14923E-3,.1688E-4,0
STARLINK-32914,2025-037K,2026-07-07T01:39:19.929024,14.98320684,.0002947,70.0005,53.4611,278.4936,81.5889,0,U,63086,999,7648,.18134E-3,.2071E-4,0
STARLINK-32918,2025-037L,2026-07-06T22:51:06.554016,14.98314829,.0002666,70.0009,53.8623,271.1689,88.9165,0,U,63087,999,7655,.28538E-3,.3312E-4,0
STARLINK-32912,2025-037M,2026-07-07T00:57:29.940768,14.98318867,.000272,70.0006,53.3672,263.1794,96.9056,0,U,63088,999,7658,.23082E-3,.2661E-4,0
STARLINK-32910,2025-037N,2026-07-07T01:45:32.987808,14.98372873,.0002768,70.0012,53.4785,274.5585,85.5258,0,U,63089,999,7648,.11115E-2,.13209E-3,0
STARLINK-32903,2025-037P,2026-07-06T21:38:58.892064,14.98314159,.0002533,70.0006,53.6917,272.4287,87.6582,0,U,63090,999,7632,.53749E-3,.6323E-4,0
STARLINK-32925,2025-037Q,2026-07-06T23:21:07.477344,14.98318175,.0002781,70.0012,53.5337,266.5684,93.5157,0,U,63091,999,7641,.15742E-3,.1785E-4,0
STARLINK-32924,2025-037R,2026-07-07T01:09:16.698816,14.98322383,.0002554,70.0005,53.3954,273.8237,86.2630,0,U,63092,999,7648,.22911E-3,.2641E-4,0
STARLINK-32900,2025-037S,2026-07-07T03:03:26.985888,14.98342582,.0003143,70.0011,53.2692,269.7701,90.3098,0,U,63093,999,7635,.3217E-3,.3749E-4,0
STARLINK-32927,2025-037T,2026-07-06T22:57:05.491584,14.98374936,.0002998,70.0022,53.8818,264.9783,95.1033,0,U,63094,999,7641,.2351E-2,.28104E-3,0
STARLINK-32907,2025-037U,2026-07-06T22:39:02.852928,14.98322718,.0002928,70.0010,53.8308,271.4385,88.6439,0,U,63095,999,7641,-.36688E-3,-.4467E-4,0
STARLINK-32911,2025-037V,2026-07-06T23:09:07.824096,14.98344098,.0001705,70.0008,53.9035,266.4591,93.6373,0,U,63096,999,7645,.30266E-3,.3521E-4,0
STARLINK-32923,2025-037W,2026-07-07T01:03:16.230240,14.98318380,.000274,70.0007,53.3804,266.6967,93.3878,0,U,63097,999,7648,.6222E-3,.7337E-4,0
STARLINK-32913,2025-037X,2026-07-07T01:21:17.199648,14.98336001,.0002828,70.0010,53.4160,271.3499,88.7336,0,U,63098,999,7649,.19303E-3,.2211E-4,0
STARLINK-11629 [DTC],2025-039A,2026-07-06T04:20:05.248320,15.70896104,.0001532,42.9981,242.3861,241.0191,119.0523,0,U,63104,999,7825,.1151976E-2,.150425E-2,0
STARLINK-11624 [DTC],2025-039B,2026-07-07T04:15:55.357920,15.70908291,.0001305,42.9996,236.9862,231.2835,128.7916,0,U,63105,999,7840,.85595E-3,.11118E-2,0
STARLINK-11584 [DTC],2025-039C,2026-07-07T04:14:37.483872,15.70893870,.0002197,42.9999,236.9797,333.6288,26.4468,0,U,63106,999,7840,.97715E-3,.127161E-2,0
STARLINK-11627 [DTC],2025-039D,2026-07-07T03:28:44.532768,15.70976906,.0002503,42.9999,236.7232,132.0999,228.0082,0,U,63107,999,7840,.90561E-3,.118105E-2,0
STARLINK-11632 [DTC],2025-039E,2026-07-07T03:51:40.636800,15.70952944,.0001282,42.9979,236.8483,243.5400,116.5336,0,U,63108,999,7840,.14366E-2,.189036E-2,0
STARLINK-11625 [DTC],2025-039F,2026-07-07T03:59:19.304160,15.70939657,.0001198,42.9991,236.8911,260.7371,99.3361,0,U,63109,999,7840,.13178E-2,.172932E-2,0
STARLINK-11601 [DTC],2025-039G,2026-07-07T03:36:23.474016,15.71009874,.0002908,43.0007,236.7634,318.1374,41.9271,0,U,63110,999,7840,.11331E-2,.148648E-2,0
STARLINK-11630 [DTC],2025-039H,2026-07-07T04:06:58.037184,15.70923488,.0001236,43.0017,236.9369,233.8657,126.2097,0,U,63111,999,7840,.91221E-3,.118701E-2,0
STARLINK-11590 [DTC],2025-039J,2026-07-07T02:00:03.000384,15.70849931,.0001473,43.0002,237.6140,266.2146,254.7273,0,U,63112,999,607,-.45008E-3,-.57824E-3,0
STARLINK-11598 [DTC],2025-039K,2026-07-06T14:00:00.277056,15.70924145,.0002019,42.9996,240.2539,297.1369,62.9292,0,U,63113,999,7831,.85815E-3,.111551E-2,0
STARLINK-11600 [DTC],2025-039L,2026-07-07T03:21:05.752224,15.70961068,.0001723,42.9997,236.6737,257.0936,102.9740,0,U,63114,999,7840,.15926E-2,.210217E-2,0
STARLINK-11597 [DTC],2025-039M,2026-07-06T14:53:20.063904,15.70920972,.0001632,42.9996,239.6564,249.4896,110.5796,0,U,63115,999,7832,.56644E-3,.73125E-3,0
STARLINK-11591 [DTC],2025-039N,2026-07-06T14:45:41.938272,15.70902178,.0001189,42.9992,239.6125,275.8965,84.1767,0,U,63116,999,7832,.76964E-3,.99759E-3,0
STARLINK-32955,2025-039P,2026-07-07T02:00:03.000384,15.75231752,.0024775,42.9865,29.9394,281.9977,62.5329,0,U,63117,999,547,.51758E-3,.8205E-3,0
STARLINK-32945,2025-039Q,2026-07-07T01:15:28.008000,15.27647304,.0002089,43.0003,58.5201,256.8854,103.1765,0,U,63118,999,7632,.15879E-2,.43786E-3,0
STARLINK-32941,2025-039R,2026-07-06T23:46:53.772096,15.27628993,.0002143,43.0058,47.6590,272.5721,87.4885,0,U,63119,999,7644,.12956E-2,.35616E-3,0
STARLINK-32942,2025-039S,2026-07-07T01:24:43.814016,15.27631369,.0001315,42.9989,58.5650,272.9866,87.0835,0,U,63120,999,7632,.12378E-2,.34009E-3,0
STARLINK-32947,2025-039T,2026-07-06T23:04:19.501248,15.27615663,.0001405,43.0027,58.6982,273.5288,86.5403,0,U,63121,999,7631,.12216E-2,.33542E-3,0
STARLINK-32961,2025-039U,2026-07-07T00:07:13.899936,15.27629171,.0001703,42.9991,59.0283,263.7337,96.3321,0,U,63122,999,7631,.13826E-2,.38038E-3,0
STARLINK-32948,2025-039V,2026-07-06T23:56:08.174112,15.27623178,.0001502,42.9997,58.9671,263.7155,96.3525,0,U,63123,999,7631,.12987E-2,.35696E-3,0
STARLINK-32957,2025-039W,2026-07-07T00:16:28.899840,15.27623736,.0001418,42.9998,59.0789,267.6664,92.4025,0,U,63124,999,7631,.11339E-2,.31114E-3,0
SUPERVIEW NEO-1 03,2025-040A,2026-07-06T23:54:32.150880,15.21650650,.0002035,97.3514,301.9542,120.4482,239.6955,0,U,63125,999,7519,.30222E-3,.6763E-4,0
SUPERVIEW NEO-1 04,2025-040B,2026-07-06T09:43:05.496672,15.21621423,.00014879,97.3541,301.4827,158.0257,202.1043,0,U,63126,999,7511,-.4145401E-3,-.9408E-4,0
COSMOS 2584 [GLONASS-K2],2025-042A,2026-07-04T12:04:02.572320,2.13103855,.00060594,65.0947,72.2135,222.1818,137.8396,0,U,63130,999,1041,0,-.1E-6,0
STARLINK-11609 [DTC],2025-043A,2026-07-07T04:18:58.150080,15.70985354,.0000794,42.9988,250.5778,178.0181,182.0690,0,U,63132,999,7825,.9685E-3,.126501E-2,0
STARLINK-11604 [DTC],2025-043B,2026-07-07T04:49:32.891232,15.71007661,.0003541,42.9983,250.7491,140.7303,219.3821,0,U,63133,999,7814,.10951E-2,.14356E-2,0
STARLINK-11605 [DTC],2025-043C,2026-07-06T14:42:35.012736,15.70953933,.0002255,42.9997,254.0678,309.0826,50.9840,0,U,63134,999,7805,.1229E-2,.161112E-2,0
STARLINK-11610 [DTC],2025-043D,2026-07-07T04:34:15.453696,15.70980285,.000201,43.0003,250.6598,233.5795,126.4887,0,U,63135,999,7814,.95112E-3,.124166E-2,0
STARLINK-11613 [DTC],2025-043E,2026-07-07T04:41:54.234240,15.70993872,.0001826,42.9993,250.7041,264.5960,95.4699,0,U,63136,999,7826,.10236E-2,.133893E-2,0
STARLINK-11616 [DTC],2025-043F,2026-07-05T13:25:26.220864,15.70754967,.0001532,42.9988,259.9074,280.0406,80.0288,0,U,63137,999,7801,.15945E-2,.20862E-2,0
STARLINK-11611 [DTC],2025-043G,2026-07-07T03:56:01.800672,15.70904107,.0001339,42.9994,250.4481,286.5851,73.4869,0,U,63138,999,7826,.96193E-3,.125192E-2,0
STARLINK-11628 [DTC],2025-043H,2026-07-06T15:51:11.946816,15.70895210,.000121,42.9988,253.5550,316.4762,43.6010,0,U,63139,999,7818,.50677E-3,.6524E-3,0
STARLINK-11607 [DTC],2025-043J,2026-07-06T15:28:15.945600,15.70974299,.0001873,42.9989,253.4253,272.7136,87.3517,0,U,63140,999,7818,.14245E-2,.187574E-2,0
STARLINK-11522 [DTC],2025-043K,2026-07-06T15:35:54.391776,15.70941001,.000195,42.9996,253.4690,279.0166,81.0480,0,U,63141,999,7800,.86183E-3,.112118E-2,0
